{
  "type": "FeatureCollection",
  "features": [
    {
      "type": "Feature",
      "properties": {
        "norad_id": 46468,
        "name": "FENGYUN 1C DEB",
        "group": "fengyun-1c-debris",
        "lat": -65.21054693412593,
        "lon": 104.64281554836093,
        "alt_km": 817.0150772725019,
        "timestamp": "2025-12-22T22:44:21.266298+00:00",
        "meta_object_name": "FENGYUN 1C DEB",
        "meta_object_id": "1999-025EZK",
        "meta_epoch": "2025-12-21T17:25:46.716096",
        "meta_mean_motion": 14.24795072,
        "meta_eccentricity": 0.00465409,
        "meta_inclination": 98.8842,
        "meta_ra_of_asc_node": 83.6114,
        "meta_arg_of_pericenter": 205.391,
        "meta_mean_anomaly": 306.8447,
        "meta_ephemeris_type": 0,
        "meta_classification_type": "U",
        "meta_norad_cat_id": 46468,
        "meta_element_set_no": 999,
        "meta_rev_at_epoch": 73944,
        "meta_bstar": 0.0014995537,
        "meta_mean_motion_dot": 3.491e-05,
        "meta_mean_motion_ddot": 0,
        "tle_line1": "1 46468U 99025EZK 25355.72623514  .00003491  00000+0  14996-2 0  9990",
        "tle_line2": "2 46468  98.8842  83.6114 0046540 205.3910 306.8447 14.24795072739441"
      },
      "geometry": {
        "type": "Point",
        "coordinates": [
          104.64281554836093,
          -65.21054693412593
        ]
      }
    },
    {
      "type": "Feature",
      "properties": {
        "norad_id": 46986,
        "name": "FENGYUN 1C DEB",
        "group": "fengyun-1c-debris",
        "lat": -33.96390955088019,
        "lon": -165.17373634465514,
        "alt_km": 678.3941699243287,
        "timestamp": "2025-12-22T22:44:21.266308+00:00",
        "meta_object_name": "FENGYUN 1C DEB",
        "meta_object_id": "1999-025EZL",
        "meta_epoch": "2025-12-21T19:12:19.808928",
        "meta_mean_motion": 14.47210504,
        "meta_eccentricity": 0.01050551,
        "meta_inclination": 98.2361,
        "meta_ra_of_asc_node": 19.3086,
        "meta_arg_of_pericenter": 184.2528,
        "meta_mean_anomaly": 175.7783,
        "meta_ephemeris_type": 0,
        "meta_classification_type": "U",
        "meta_norad_cat_id": 46986,
        "meta_element_set_no": 999,
        "meta_rev_at_epoch": 63531,
        "meta_bstar": 0.00032525061,
        "meta_mean_motion_dot": 1.226e-05,
        "meta_mean_motion_ddot": 0,
        "tle_line1": "1 46986U 99025EZL 25355.80022927  .00001226  00000+0  32525-3 0  9998",
        "tle_line2": "2 46986  98.2361  19.3086 0105055 184.2528 175.7783 14.47210504635311"
      },
      "geometry": {
        "type": "Point",
        "coordinates": [
          -165.17373634465514,
          -33.96390955088019
        ]
      }
    },
    {
      "type": "Feature",
      "properties": {
        "norad_id": 46989,
        "name": "FENGYUN 1C DEB",
        "group": "fengyun-1c-debris",
        "lat": -24.87382022916795,
        "lon": 163.2264002432418,
        "alt_km": 808.2606248553611,
        "timestamp": "2025-12-22T22:44:21.266319+00:00",
        "meta_object_name": "FENGYUN 1C DEB",
        "meta_object_id": "1999-025EZP",
        "meta_epoch": "2025-12-21T17:20:53.259360",
        "meta_mean_motion": 13.79402442,
        "meta_eccentricity": 0.02430853,
        "meta_inclination": 99.5065,
        "meta_ra_of_asc_node": 157.5409,
        "meta_arg_of_pericenter": 313.5533,
        "meta_mean_anomaly": 62.0427,
        "meta_ephemeris_type": 0,
        "meta_classification_type": "U",
        "meta_norad_cat_id": 46989,
        "meta_element_set_no": 999,
        "meta_rev_at_epoch": 71166,
        "meta_bstar": 0.0037000278,
        "meta_mean_motion_dot": 4.701e-05,
        "meta_mean_motion_ddot": 0,
        "tle_line1": "1 46989U 99025EZP 25355.72283865  .00004701  00000+0  37000-2 0  9995",
        "tle_line2": "2 46989  99.5065 157.5409 0243085 313.5533  62.0427 13.79402442711666"
      },
      "geometry": {
        "type": "Point",
        "coordinates": [
          163.2264002432418,
          -24.87382022916795
        ]
      }
    },
    {
      "type": "Feature",
      "properties": {
        "norad_id": 46990,
        "name": "FENGYUN 1C DEB",
        "group": "fengyun-1c-debris",
        "lat": -67.39259703088659,
        "lon": -139.2126558206375,
        "alt_km": 851.0469565234753,
        "timestamp": "2025-12-22T22:44:21.266329+00:00",
        "meta_object_name": "FENGYUN 1C DEB",
        "meta_object_id": "1999-025EZQ",
        "meta_epoch": "2025-12-14T09:50:58.179840",
        "meta_mean_motion": 14.23869634,
        "meta_eccentricity": 0.03581836,
        "meta_inclination": 98.2322,
        "meta_ra_of_asc_node": 192.4277,
        "meta_arg_of_pericenter": 55.4999,
        "meta_mean_anomaly": 61.9058,
        "meta_ephemeris_type": 0,
        "meta_classification_type": "U",
        "meta_norad_cat_id": 46990,
        "meta_element_set_no": 999,
        "meta_rev_at_epoch": 8553,
        "meta_bstar": 0.002161109,
        "meta_mean_motion_dot": 9.626e-05,
        "meta_mean_motion_ddot": 0,
        "tle_line1": "1 46990U 99025EZQ 25348.41039560  .00009626  00000+0  21611-2 0  9998",
        "tle_line2": "2 46990  98.2322 192.4277 0358183  55.4999  61.9058 14.23869634 85533"
      },
      "geometry": {
        "type": "Point",
        "coordinates": [
          -139.2126558206375,
          -67.39259703088659
        ]
      }
    },
    {
      "type": "Feature",
      "properties": {
        "norad_id": 46992,
        "name": "FENGYUN 1C DEB",
        "group": "fengyun-1c-debris",
        "lat": -48.32565809337674,
        "lon": 153.29788405486332,
        "alt_km": 903.8597599100121,
        "timestamp": "2025-12-22T22:44:21.266340+00:00",
        "meta_object_name": "FENGYUN 1C DEB",
        "meta_object_id": "1999-025EZS",
        "meta_epoch": "2025-12-19T18:13:25.191840",
        "meta_mean_motion": 14.00708006,
        "meta_eccentricity": 0.00721425,
        "meta_inclination": 98.901,
        "meta_ra_of_asc_node": 340.3322,
        "meta_arg_of_pericenter": 141.1765,
        "meta_mean_anomaly": 219.4614,
        "meta_ephemeris_type": 0,
        "meta_classification_type": "U",
        "meta_norad_cat_id": 46992,
        "meta_element_set_no": 999,
        "meta_rev_at_epoch": 61055,
        "meta_bstar": 0.00043037595,
        "meta_mean_motion_dot": 6.13e-06,
        "meta_mean_motion_ddot": 0,
        "tle_line1": "1 46992U 99025EZS 25353.75931935  .00000613  00000+0  43038-3 0  9995",
        "tle_line2": "2 46992  98.9010 340.3322 0072142 141.1765 219.4614 14.00708006610557"
      },
      "geometry": {
        "type": "Point",
        "coordinates": [
          153.29788405486332,
          -48.32565809337674
        ]
      }
    },
    {
      "type": "Feature",
      "properties": {
        "norad_id": 46993,
        "name": "FENGYUN 1C DEB",
        "group": "fengyun-1c-debris",
        "lat": -3.221353879258593,
        "lon": 114.94299188861562,
        "alt_km": 982.3727008246269,
        "timestamp": "2025-12-22T22:44:21.266350+00:00",
        "meta_object_name": "FENGYUN 1C DEB",
        "meta_object_id": "1999-025EZT",
        "meta_epoch": "2025-12-18T13:48:38.255328",
        "meta_mean_motion": 13.69154142,
        "meta_eccentricity": 0.02625123,
        "meta_inclination": 98.7233,
        "meta_ra_of_asc_node": 110.4847,
        "meta_arg_of_pericenter": 283.8917,
        "meta_mean_anomaly": 132.0062,
        "meta_ephemeris_type": 0,
        "meta_classification_type": "U",
        "meta_norad_cat_id": 46993,
        "meta_element_set_no": 999,
        "meta_rev_at_epoch": 60337,
        "meta_bstar": 0.00040493614,
        "meta_mean_motion_dot": 4.06e-06,
        "meta_mean_motion_ddot": 0,
        "tle_line1": "1 46993U 99025EZT 25352.57544277  .00000406  00000+0  40494-3 0  9997",
        "tle_line2": "2 46993  98.7233 110.4847 0262512 283.8917 132.0062 13.69154142603375"
      },
      "geometry": {
        "type": "Point",
        "coordinates": [
          114.94299188861562,
          -3.221353879258593
        ]
      }
    },
    {
      "type": "Feature",
      "properties": {
        "norad_id": 46995,
        "name": "FENGYUN 1C DEB",
        "group": "fengyun-1c-debris",
        "lat": -75.1716843204023,
        "lon": -136.71211685961472,
        "alt_km": 1083.031282230295,
        "timestamp": "2025-12-22T22:44:21.266360+00:00",
        "meta_object_name": "FENGYUN 1C DEB",
        "meta_object_id": "1999-025EZV",
        "meta_epoch": "2025-12-22T04:11:29.348736",
        "meta_mean_motion": 13.86405341,
        "meta_eccentricity": 0.01883818,
        "meta_inclination": 98.5952,
        "meta_ra_of_asc_node": 77.4178,
        "meta_arg_of_pericenter": 92.4986,
        "meta_mean_anomaly": 269.7752,
        "meta_ephemeris_type": 0,
        "meta_classification_type": "U",
        "meta_norad_cat_id": 46995,
        "meta_element_set_no": 999,
        "meta_rev_at_epoch": 60599,
        "meta_bstar": 0.0024642191,
        "meta_mean_motion_dot": 3.245e-05,
        "meta_mean_motion_ddot": 0,
        "tle_line1": "1 46995U 99025EZV 25356.17464524  .00003245  00000+0  24642-2 0  9995",
        "tle_line2": "2 46995  98.5952  77.4178 0188381  92.4986 269.7752 13.86405341605996"
      },
      "geometry": {
        "type": "Point",
        "coordinates": [
          -136.71211685961472,
          -75.1716843204023
        ]
      }
    }
  ]
}